CZ-2C R/B               
1 54039U 22132E   25345.51241097  .00052200  00000+0  77582-3 0  9999
2 54039  97.2954 341.6875 0023309  61.2575 299.1017 15.54693942176647
GSLV R/B                
1 54149U 22138AN  25345.51808381  .00004593  00000+0  40360-3 0  9998
2 54149  87.3827 195.8833 0024053 109.4320 250.9514 14.96120805170741
XRISM                   
1 57800U 23137A   25345.44636952  .00009889  00000+0  58233-3 0  9991
2 57800  31.0009 133.8941 0007682 232.6560 127.3379 15.10324376124439
ACS3                    
1 59588U 24077B   25345.59849060  .00038186  00000+0  32631-1 0  9996
2 59588  97.2689 301.4591 0077749 340.8420  18.9821 13.85398793 81987
SZ-21 MODULE            
1 66515U 25246C   25345.51652335  .00042118  00000+0  46259-3 0  9995
2 66515  41.4773  23.5075 0006302 253.7333 106.2813 15.62393058  4254
