CCSDS_OMM_VERS = 2.0
CREATION_DATE  = 
ORIGINATOR     = 

OBJECT_NAME    = CZ-2C R/B
OBJECT_ID      = 2022-132E
CENTER_NAME    = EARTH
REF_FRAME      = TEME
TIME_SYSTEM    = UTC
MEAN_ELEMENT_THEORY = SGP/SGP4

EPOCH          = 2025-12-11T12:17:52.307808
MEAN_MOTION    = 15.54693942
ECCENTRICITY   = .00233095
INCLINATION    = 97.2954
RA_OF_ASC_NODE = 341.6875
ARG_OF_PERICENTER = 61.2575
MEAN_ANOMALY   = 299.1017

EPHEMERIS_TYPE = 0
CLASSIFICATION_TYPE = U
NORAD_CAT_ID   = 54039
ELEMENT_SET_NO = 999
REV_AT_EPOCH   = 17664
BSTAR          = .77581622E-3
MEAN_MOTION_DOT = .522E-3
MEAN_MOTION_DDOT = 0

CCSDS_OMM_VERS = 2.0
CREATION_DATE  = 
ORIGINATOR     = 

OBJECT_NAME    = GSLV R/B
OBJECT_ID      = 2022-138AN
CENTER_NAME    = EARTH
REF_FRAME      = TEME
TIME_SYSTEM    = UTC
MEAN_ELEMENT_THEORY = SGP/SGP4

EPOCH          = 2025-12-11T12:26:02.441184
MEAN_MOTION    = 14.96120805
ECCENTRICITY   = .00240534
INCLINATION    = 87.3827
RA_OF_ASC_NODE = 195.8833
ARG_OF_PERICENTER = 109.4320
MEAN_ANOMALY   = 250.9514

EPHEMERIS_TYPE = 0
CLASSIFICATION_TYPE = U
NORAD_CAT_ID   = 54149
ELEMENT_SET_NO = 999
REV_AT_EPOCH   = 17074
BSTAR          = .40359645E-3
MEAN_MOTION_DOT = .4593E-4
MEAN_MOTION_DDOT = 0

CCSDS_OMM_VERS = 2.0
CREATION_DATE  = 
ORIGINATOR     = 

OBJECT_NAME    = XRISM
OBJECT_ID      = 2023-137A
CENTER_NAME    = EARTH
REF_FRAME      = TEME
TIME_SYSTEM    = UTC
MEAN_ELEMENT_THEORY = SGP/SGP4

EPOCH          = 2025-12-11T10:42:46.326528
MEAN_MOTION    = 15.10324376
ECCENTRICITY   = .00076826
INCLINATION    = 31.0009
RA_OF_ASC_NODE = 133.8941
ARG_OF_PERICENTER = 232.6560
MEAN_ANOMALY   = 127.3379

EPHEMERIS_TYPE = 0
CLASSIFICATION_TYPE = U
NORAD_CAT_ID   = 57800
ELEMENT_SET_NO = 999
REV_AT_EPOCH   = 12443
BSTAR          = .58232643E-3
MEAN_MOTION_DOT = .9889E-4
MEAN_MOTION_DDOT = 0

CCSDS_OMM_VERS = 2.0
CREATION_DATE  = 
ORIGINATOR     = 

OBJECT_NAME    = ACS3
OBJECT_ID      = 2024-077B
CENTER_NAME    = EARTH
REF_FRAME      = TEME
TIME_SYSTEM    = UTC
MEAN_ELEMENT_THEORY = SGP/SGP4

EPOCH          = 2025-12-11T14:21:49.587840
MEAN_MOTION    = 13.85398793
ECCENTRICITY   = .00777496
INCLINATION    = 97.2689
RA_OF_ASC_NODE = 301.4591
ARG_OF_PERICENTER = 340.8420
MEAN_ANOMALY   = 18.9821

EPHEMERIS_TYPE = 0
CLASSIFICATION_TYPE = U
NORAD_CAT_ID   = 59588
ELEMENT_SET_NO = 999
REV_AT_EPOCH   = 8198
BSTAR          = .3263149E-1
MEAN_MOTION_DOT = .38186E-3
MEAN_MOTION_DDOT = 0

CCSDS_OMM_VERS = 2.0
CREATION_DATE  = 
ORIGINATOR     = 

OBJECT_NAME    = SZ-21 MODULE
OBJECT_ID      = 2025-246C
CENTER_NAME    = EARTH
REF_FRAME      = TEME
TIME_SYSTEM    = UTC
MEAN_ELEMENT_THEORY = SGP/SGP4

EPOCH          = 2025-12-11T12:23:47.617440
MEAN_MOTION    = 15.62393058
ECCENTRICITY   = .00063024
INCLINATION    = 41.4773
RA_OF_ASC_NODE = 23.5075
ARG_OF_PERICENTER = 253.7333
MEAN_ANOMALY   = 106.2813

EPHEMERIS_TYPE = 0
CLASSIFICATION_TYPE = U
NORAD_CAT_ID   = 66515
ELEMENT_SET_NO = 999
REV_AT_EPOCH   = 425
BSTAR          = .46258705E-3
MEAN_MOTION_DOT = .42118E-3
MEAN_MOTION_DDOT = 0

